{
  "40258": [
    {
      "epoch": "2026-03-18T14:09:19.863922+00:00",
      "mean_motion": 0.991155,
      "eccentricity": 0.0002424,
      "inclination": 1.6566,
      "raan": 83.8465,
      "arg_perigee": 218.5434,
      "mean_anomaly": 226.6465,
      "bstar": 0.0,
      "tle_line1": "1 40258U 14058A   26077.58981324 -.00000287  00000-0  00000+0 0  9996",
      "tle_line2": "2 40258   1.6566  83.8465 0002424 218.5434 226.6465  0.99115500 40070",
      "norad_id": 40258,
      "object_name": "LUCH (OLYMP)"
    },
    {
      "epoch": "2026-03-19T20:17:38.632141+00:00",
      "mean_motion": 0.9911484599999999,
      "eccentricity": 0.0002443,
      "inclination": 1.6601,
      "raan": 83.8251,
      "arg_perigee": 217.9709,
      "mean_anomaly": 315.3277,
      "bstar": 0.0,
      "tle_line1": "1 40258U 14058A   26078.84558602 -.00000278  00000-0  00000+0 0  9995",
      "tle_line2": "2 40258   1.6601  83.8251 0002443 217.9709 315.3277  0.99114846 40082",
      "norad_id": 40258,
      "object_name": "LUCH (OLYMP)"
    },
    {
      "epoch": "2026-03-20T00:20:55.661591+00:00",
      "mean_motion": 0.9911475,
      "eccentricity": 0.0002448,
      "inclination": 1.6605000000000003,
      "raan": 83.8214,
      "arg_perigee": 217.7836,
      "mean_anomaly": 15.8026,
      "bstar": 0.0,
      "tle_line1": "1 40258U 14058A   26079.01453312 -.00000277  00000-0  00000+0 0  9996",
      "tle_line2": "2 40258   1.6605  83.8214 0002448 217.7836  15.8026  0.99114750 40087",
      "norad_id": 40258,
      "object_name": "LUCH (OLYMP)"
    },
    {
      "epoch": "2026-03-20T10:36:38.883728+00:00",
      "mean_motion": 0.99114508,
      "eccentricity": 0.0002454,
      "inclination": 1.6617,
      "raan": 83.8143,
      "arg_perigee": 217.8544,
      "mean_anomaly": 168.3091,
      "bstar": 0.0,
      "tle_line1": "1 40258U 14058A   26079.44211671 -.00000272  00000-0  00000+0 0  9998",
      "tle_line2": "2 40258   1.6617  83.8143 0002454 217.8544 168.3091  0.99114508 40093",
      "norad_id": 40258,
      "object_name": "LUCH (OLYMP)"
    },
    {
      "epoch": "2026-03-20T19:46:10.646118+00:00",
      "mean_motion": 0.99114317,
      "eccentricity": 0.0002457,
      "inclination": 1.6628,
      "raan": 83.8081,
      "arg_perigee": 217.7536,
      "mean_anomaly": 304.5848,
      "bstar": 0.0,
      "tle_line1": "1 40258U 14058A   26079.82373433 -.00000267  00000-0  00000+0 0  9999",
      "tle_line2": "2 40258   1.6628  83.8081 0002457 217.7536 304.5848  0.99114317 40091",
      "norad_id": 40258,
      "object_name": "LUCH (OLYMP)"
    },
    {
      "epoch": "2026-03-23T13:17:38.796844+00:00",
      "mean_motion": 0.9911275400000001,
      "eccentricity": 0.0002483,
      "inclination": 1.6706,
      "raan": 83.7598,
      "arg_perigee": 217.7388,
      "mean_anomaly": 198.8221,
      "bstar": 0.0,
      "tle_line1": "1 40258U 14058A   26082.55392126 -.00000223  00000-0  00000+0 0  9995",
      "tle_line2": "2 40258   1.6706  83.7598 0002483 217.7388 198.8221  0.99112754 40120",
      "norad_id": 40258,
      "object_name": "LUCH (OLYMP)"
    },
    {
      "epoch": "2026-03-24T12:42:48.188995+00:00",
      "mean_motion": 0.99112235,
      "eccentricity": 0.0002475,
      "inclination": 1.6735000000000002,
      "raan": 83.7437,
      "arg_perigee": 218.2117,
      "mean_anomaly": 186.5437,
      "bstar": 0.0,
      "tle_line1": "1 40258U 14058A   26083.52972441 -.00000203  00000-0  00000+0 0  9995",
      "tle_line2": "2 40258   1.6735  83.7437 0002475 218.2117 186.5437  0.99112235 40139",
      "norad_id": 40258,
      "object_name": "LUCH (OLYMP)"
    },
    {
      "epoch": "2026-03-25T21:11:55.488770+00:00",
      "mean_motion": 0.9911160599999999,
      "eccentricity": 0.0002434,
      "inclination": 1.6774,
      "raan": 83.7234,
      "arg_perigee": 219.3772,
      "mean_anomaly": 308.3615,
      "bstar": 0.0,
      "tle_line1": "1 40258U 14058A   26084.88328112 -.00000172  00000-0  00000+0 0  9990",
      "tle_line2": "2 40258   1.6774  83.7234 0002434 219.3772 308.3615  0.99111606 40145",
      "norad_id": 40258,
      "object_name": "LUCH (OLYMP)"
    },
    {
      "epoch": "2026-03-26T01:41:47.030212+00:00",
      "mean_motion": 0.9911151900000001,
      "eccentricity": 0.0002426,
      "inclination": 1.678,
      "raan": 83.7196,
      "arg_perigee": 219.6019,
      "mean_anomaly": 15.0074,
      "bstar": 0.0,
      "tle_line1": "1 40258U 14058A   26085.07068322 -.00000167  00000-0  00000+0 0  9990",
      "tle_line2": "2 40258   1.6780  83.7196 0002426 219.6019  15.0074  0.99111519 40141",
      "norad_id": 40258,
      "object_name": "LUCH (OLYMP)"
    },
    {
      "epoch": "2026-03-26T11:57:22.013275+00:00",
      "mean_motion": 0.9911132,
      "eccentricity": 0.0002411,
      "inclination": 1.6792,
      "raan": 83.7142,
      "arg_perigee": 219.969,
      "mean_anomaly": 167.17680000000001,
      "bstar": 0.0,
      "tle_line1": "1 40258U 14058A   26085.49817145 -.00000156  00000-0  00000+0 0  9999",
      "tle_line2": "2 40258   1.6792  83.7142 0002411 219.9690 167.1768  0.99111320 40157",
      "norad_id": 40258,
      "object_name": "LUCH (OLYMP)"
    },
    {
      "epoch": "2026-03-26T18:47:44.923798+00:00",
      "mean_motion": 0.9911120199999999,
      "eccentricity": 0.0002398,
      "inclination": 1.6800000000000002,
      "raan": 83.7103,
      "arg_perigee": 220.3925,
      "mean_anomaly": 268.4432,
      "bstar": 0.0,
      "tle_line1": "1 40258U 14058A   26085.78315884 -.00000149  00000-0  00000+0 0  9996",
      "tle_line2": "2 40258   1.6800  83.7103 0002398 220.3925 268.4432  0.99111202 40157",
      "norad_id": 40258,
      "object_name": "LUCH (OLYMP)"
    },
    {
      "epoch": "2026-03-27T15:18:55.798828+00:00",
      "mean_motion": 0.9911087299999999,
      "eccentricity": 0.0002356,
      "inclination": 1.6825,
      "raan": 83.6983,
      "arg_perigee": 221.3978,
      "mean_anomaly": 212.5152,
      "bstar": 0.0,
      "tle_line1": "1 40258U 14058A   26086.63814582 -.00000125  00000-0  00000+0 0  9994",
      "tle_line2": "2 40258   1.6825  83.6983 0002356 221.3978 212.5152  0.99110873 40165",
      "norad_id": 40258,
      "object_name": "LUCH (OLYMP)"
    },
    {
      "epoch": "2026-03-27T20:26:42.795746+00:00",
      "mean_motion": 0.99110803,
      "eccentricity": 0.0002342,
      "inclination": 1.6831,
      "raan": 83.6966,
      "arg_perigee": 221.7321,
      "mean_anomaly": 288.4459,
      "bstar": 0.0,
      "tle_line1": "1 40258U 14058A   26086.85188421 -.00000119  00000-0  00000+0 0  9997",
      "tle_line2": "2 40258   1.6831  83.6966 0002342 221.7321 288.4459  0.99110803 40169",
      "norad_id": 40258,
      "object_name": "LUCH (OLYMP)"
    },
    {
      "epoch": "2026-03-28T01:58:51.631409+00:00",
      "mean_motion": 0.9911073500000002,
      "eccentricity": 0.0002323,
      "inclination": 1.6837,
      "raan": 83.6926,
      "arg_perigee": 222.1307,
      "mean_anomaly": 10.3513,
      "bstar": 0.0,
      "tle_line1": "1 40258U 14058A   26087.08254203 -.00000113  00000-0  00000+0 0  9999",
      "tle_line2": "2 40258   1.6837  83.6926 0002323 222.1307  10.3513  0.99110735 40166",
      "norad_id": 40258,
      "object_name": "LUCH (OLYMP)"
    },
    {
      "epoch": "2026-03-28T11:50:00.316589+00:00",
      "mean_motion": 0.9911058199999999,
      "eccentricity": 0.0002299,
      "inclination": 1.6848,
      "raan": 83.6881,
      "arg_perigee": 222.6109,
      "mean_anomaly": 156.3502,
      "bstar": 0.0,
      "tle_line1": "1 40258U 14058A   26087.49305922 -.00000100  00000-0  00000+0 0  9995",
      "tle_line2": "2 40258   1.6848  83.6881 0002299 222.6109 156.3502  0.99110582 40175",
      "norad_id": 40258,
      "object_name": "LUCH (OLYMP)"
    },
    {
      "epoch": "2026-03-28T18:40:27.929871+00:00",
      "mean_motion": 0.99110497,
      "eccentricity": 0.0002284,
      "inclination": 1.6856,
      "raan": 83.6844,
      "arg_perigee": 223.06120000000004,
      "mean_anomaly": 257.6082,
      "bstar": 0.0,
      "tle_line1": "1 40258U 14058A   26087.77810104 -.00000092  00000-0  00000+0 0  9999",
      "tle_line2": "2 40258   1.6856  83.6844 0002284 223.0612 257.6082  0.99110497 40174",
      "norad_id": 40258,
      "object_name": "LUCH (OLYMP)"
    },
    {
      "epoch": "2026-03-31T13:21:43.541290+00:00",
      "mean_motion": 0.99109956,
      "eccentricity": 0.0002079,
      "inclination": 1.693,
      "raan": 83.6499,
      "arg_perigee": 227.722,
      "mean_anomaly": 164.4157,
      "bstar": 0.0,
      "tle_line1": "1 40258U 14058A   26090.55675395 -.00000008  00000-0  00000+0 0  9997",
      "tle_line2": "2 40258   1.6930  83.6499 0002079 227.7220 164.4157  0.99109956 40201",
      "norad_id": 40258,
      "object_name": "LUCH (OLYMP)"
    },
    {
      "epoch": "2026-04-01T16:43:15.661896+00:00",
      "mean_motion": 0.9910988700000001,
      "eccentricity": 0.0002007,
      "inclination": 1.696,
      "raan": 83.6355,
      "arg_perigee": 229.64560000000003,
      "mean_anomaly": 209.2458,
      "bstar": 0.0,
      "tle_line1": "1 40258U 14058A   26091.69670905  .00000023  00000-0  00000+0 0  9991",
      "tle_line2": "2 40258   1.6960  83.6355 0002007 229.6456 209.2458  0.99109887 40214",
      "norad_id": 40258,
      "object_name": "LUCH (OLYMP)"
    },
    {
      "epoch": "2026-04-01T23:27:21.731049+00:00",
      "mean_motion": 0.9910988599999999,
      "eccentricity": 0.0001991,
      "inclination": 1.6967000000000003,
      "raan": 83.6318,
      "arg_perigee": 230.09750000000003,
      "mean_anomaly": 308.92590000000007,
      "bstar": 0.0,
      "tle_line1": "1 40258U 14058A   26091.97733485  .00000030  00000-0  00000+0 0  9993",
      "tle_line2": "2 40258   1.6967  83.6318 0001991 230.0975 308.9259  0.99109886 40218",
      "norad_id": 40258,
      "object_name": "LUCH (OLYMP)"
    }
  ],
  "44878": []
}